IRIDIUM 8 [+]           
1 24792U 97020A   16237.51111144 -.00000045  00000-0 -23180-4 0  9998
2 24792  86.3925  82.7333 0002072  80.9017 279.2413 14.34216757 10673
IRIDIUM 7 [+]           
1 24793U 97020B   16237.50477472  .00000023  00000-0  12127-5 0  9991
2 24793  86.3929  83.0026 0002139  85.7594 274.3846 14.34218084 10679
IRIDIUM 6 [+]           
1 24794U 97020C   16237.49832261 -.00000020  00000-0 -14068-4 0  9995
2 24794  86.3927  82.9427 0002038  83.2319 276.9108 14.34219054 10674
IRIDIUM 5 [+]           
1 24795U 97020D   16237.14326207  .00000006  00000-0 -48448-5 0  9999
2 24795  86.3912  83.1175 0002137  85.9382 274.2058 14.34215605 10708
IRIDIUM 4 [-]           
1 24796U 97020E   16237.53119645  .00000089  00000-0  24171-4 0  9995
2 24796  86.3920  82.0770 0002128  85.4173 303.1543 14.35098043 10752
IRIDIUM 914 [-]         
1 24836U 97030A   16237.21558892  .00000128  00000-0  35358-4 0  9990
2 24836  86.3918  99.7705 0002897  52.6260 307.5202 14.38699002  6247
IRIDIUM 12 [+]          
1 24837U 97030B   16237.25609536  .00000128  00000-0  38797-4 0  9997
2 24837  86.3960 114.2552 0002209  83.3231  55.8142 14.34216786  4383
IRIDIUM 10 [+]          
1 24839U 97030D   16237.23981640  .00000134  00000-0  40660-4 0  9995
2 24839  86.3959 114.2434 0002198  82.2734  38.5939 14.34218945  4397
IRIDIUM 13 [+]          
1 24840U 97030E   16237.23545013  .00000128  00000-0  38697-4 0  9997
2 24840  86.3961 114.3791 0002364  83.3938 276.7526 14.34219141  4388
IRIDIUM 16 [-]          
1 24841U 97030F   16237.21810095  .00000078  00000-0  19702-4 0  9991
2 24841  86.4038 114.4181 0003066 133.0650 227.0804 14.36649649  4945
IRIDIUM 911 [-]         
1 24842U 97030G   16237.22583060  .00000140  00000-0  34381-4 0  9992
2 24842  86.4467 115.3751 0014754   5.9357 354.2017 14.44880725 10062
IRIDIUM 15 [+]          
1 24869U 97034A   16237.34671447  .00000207  00000-0  66855-4 0  9990
2 24869  86.4002 146.2174 0002019  86.6521 273.4905 14.34216291  1369
IRIDIUM 17 [-]          
1 24870U 97034B   16237.33807546  .00000153  00000-0  45991-4 0  9990
2 24870  86.4008 144.5793 0003858  96.1688 263.9948 14.35694279  1589
IRIDIUM 920 [-]         
1 24871U 97034C   16237.26457524  .00000080  00000-0  19273-4 0  9993
2 24871  86.4002 131.5171 0009872 231.6901 128.3411 14.39418257  3637
IRIDIUM 18 [+]          
1 24872U 97034D   16237.25791642  .00000194  00000-0  62189-4 0  9995
2 24872  86.4009 146.2069 0002156  85.7208 274.4234 14.34216418  1353
IRIDIUM 921 [-]         
1 24873U 97034E   16237.49155042  .00000807  00000-0  46607-4 0  9998
2 24873  86.3950 206.1017 0009635  42.4713 317.7268 15.10662738 43299
IRIDIUM 26 [-]          
1 24903U 97043A   16237.44501545  .00000125  00000-0  36737-4 0  9996
2 24903  86.3981  19.0340 0002118  96.4115 320.9461 14.35206085995417
IRIDIUM 25 [+]          
1 24904U 97043B   16237.48531243  .00000107  00000-0  31108-4 0  9996
2 24904  86.3973  19.4713 0002073  96.5280 263.6152 14.34215176995297
IRIDIUM 46 [+]          
1 24905U 97043C   16237.49797340  .00000096  00000-0  27069-4 0  9998
2 24905  86.3980  19.9928 0002050  94.2767 265.8663 14.34216053995307
IRIDIUM 23 [+]          
1 24906U 97043D   16237.49976828  .00000103  00000-0  29591-4 0  9990
2 24906  86.3987  19.4683 0001970  93.6290 308.3817 14.34216485995316
IRIDIUM 22 [+]          
1 24907U 97043E   16237.46625827  .00000107  00000-0  30998-4 0  9995
2 24907  86.3982  20.1134 0002101  93.8728 266.2708 14.34215878995290
DUMMY MASS 1 [-]        
1 24925U 97048A   16237.44335455  .00000105  00000-0  90170-5 0  9990
2 24925  86.3397 180.2098 0007924  29.2382 330.9284 14.85090980 27547
DUMMY MASS 2 [-]        
1 24926U 97048B   16236.96383194  .00000099  00000-0  83534-5 0  9998
2 24926  86.3397 181.4963 0009039  35.4043 324.7779 14.84859383 27329
IRIDIUM 29 [-]          
1 24944U 97051A   16237.46824981  .00000116  00000-0  34087-4 0  9990
2 24944  86.3933  50.9978 0002324  82.2792 277.8668 14.34593144991883
IRIDIUM 32 [+]          
1 24945U 97051B   16237.49500887 -.00000050  00000-0 -25015-4 0  9990
2 24945  86.3928  51.1393 0001973  84.3915 275.7506 14.34214895991893
IRIDIUM 33 [-]          
1 24946U 97051C   16237.52537972  .00000088  00000-0  24533-4 0  9993
2 24946  86.3847  50.9066 0009678 121.8799 238.3339 14.33505554991539
IRIDIUM 28 [-]          
1 24948U 97051E   16237.46318205  .00000106  00000-0  29818-4 0  9996
2 24948  86.3938  50.4010 0002257  99.3866 260.7586 14.35496811992009
IRIDIUM 30 [+]          
1 24949U 97051F   16237.48867080 -.00000039  00000-0 -21140-4 0  9996
2 24949  86.3929  51.2331 0001906  84.9038 275.2375 14.34214541991874
IRIDIUM 31 [+]          
1 24950U 97051G   16237.48233431  .00000018  00000-0 -81190-6 0  9994
2 24950  86.3932  51.2354 0002211  87.9490 272.1959 14.34214227991886
IRIDIUM 19 [+]          
1 24965U 97056A   16237.32714954 -.00000046  00000-0 -23425-4 0  9999
2 24965  86.3926  82.8195 0002079  81.4799 278.6632 14.34215887990006
IRIDIUM 35 [+]          
1 24966U 97056B   16237.47941477 -.00000041  00000-0 -21813-4 0  9992
2 24966  86.3924  82.7518 0002070  81.8735 278.2696 14.34216811990002
IRIDIUM 36 [-]          
1 24967U 97056C   16237.54850019  .00000088  00000-0  23646-4 0  9997
2 24967  86.3935  82.0136 0002274  85.9718 274.1738 14.35546599990301
IRIDIUM 37 [+]          
1 24968U 97056D   16237.45403100 -.00000040  00000-0 -21496-4 0  9994
2 24968  86.3927  82.9403 0002090  80.7229 279.4203 14.34216485990004
IRIDIUM 34 [+]          
1 24969U 97056E   16237.47307093 -.00000036  00000-0 -19840-4 0  9996
2 24969  86.3926  82.8690 0002126  81.6140 278.5297 14.34214172990007
IRIDIUM 43 [+]          
1 25039U 97069A   16237.32133709  .00000218  00000-0  70615-4 0  9991
2 25039  86.4026 146.1075 0002377  81.1847 278.9618 14.34218193983769
IRIDIUM 41 [+]          
1 25040U 97069B   16237.24523096  .00000188  00000-0  60004-4 0  9993
2 25040  86.4008 146.0974 0002101  86.2811 273.8625 14.34216390983758
IRIDIUM 40 [+]          
1 25041U 97069C   16237.34036954  .00000212  00000-0  68648-4 0  9997
2 25041  86.4023 146.2817 0003195  74.0228 286.1320 14.34217022983780
IRIDIUM 39 [B]          
1 25042U 97069D   16237.30951445  .00000139  00000-0  33194-4 0  9991
2 25042  86.3967 145.8831 0017430 215.0480 144.9577 14.46077724983817
IRIDIUM 38 [-]          
1 25043U 97069E   16237.23659017  .00000103  00000-0  28711-4 0  9994
2 25043  86.4005 143.6448 0002494 115.5461 244.5994 14.35968342984116
IRIDIUM 42 [-]          
1 25077U 97077A   16237.24709577  .00000089  00000-0  24635-4 0  9992
2 25077  86.4012 146.0959 0002195  89.1635 270.9812 14.34496924979625
IRIDIUM 44 [-]          
1 25078U 97077B   16237.31418436  .00000081  00000-0  20056-4 0  9997
2 25078  86.3997 136.3826 0003058 119.2531 240.8973 14.38053823980965
IRIDIUM 45 [+]          
1 25104U 97082A   16237.47599374 -.00000054  00000-0 -26229-4 0  9991
2 25104  86.3926  51.2777 0002095 120.1921 239.9482 14.34213946977848
IRIDIUM 24 [-]          
1 25105U 97082B   16237.50022502  .00000127  00000-0  34063-4 0  9994
2 25105  86.3966   0.7367 0009838 235.5189 124.5082 14.39796863980169
IRIDIUM 47 [+]          
1 25106U 97082C   16237.50433239  .00000098  00000-0  27860-4 0  9992
2 25106  86.3970  19.3439 0001966  93.1957 266.9463 14.34215535977848
IRIDIUM 49 [+]          
1 25108U 97082E   16237.45867439  .00000107  00000-0  31050-4 0  9998
2 25108  86.3972  19.4577 0002048  94.4731 324.6459 14.34215652977849
IRIDIUM 52 [+]          
1 25169U 98010A   16237.26716131  .00000140  00000-0  42975-4 0  9993
2 25169  86.3964 114.5327 0002223  83.2019 276.9429 14.34218947969226
IRIDIUM 56 [+]          
1 25170U 98010B   16237.26079382  .00000191  00000-0  61102-4 0  9994
2 25170  86.3964 114.6387 0001943  90.0800 270.0618 14.34220281969204
IRIDIUM 54 [+]          
1 25171U 98010C   16237.22277656  .00000132  00000-0  39955-4 0  9991
2 25171  86.3964 114.5706 0002236  83.2389 276.9062 14.34217151969368
IRIDIUM 50 [+]          
1 25172U 98010D   16237.25447515  .00000128  00000-0  38525-4 0  9995
2 25172  86.3963 114.5152 0002348  78.7354 281.4106 14.34216717969208
IRIDIUM 53 [+]          
1 25173U 98010E   16237.20373477  .00000128  00000-0  38583-4 0  9990
2 25173  86.3965 114.5421 0002235  83.2299 276.9151 14.34219393969206
IRIDIUM 51 [S]          
1 25262U 98018A   16237.49839053 -.00000040  00000-0 -21372-4 0  9998
2 25262  86.3920  83.0417 0001962  77.9074 282.2342 14.34218993968631
IRIDIUM 61 [+]          
1 25263U 98018B   16237.11150461 -.00000039  00000-0 -21063-4 0  9992
2 25263  86.3928  83.0495 0002058  81.4767 278.6662 14.34216255964282
IRIDIUM 55 [+]          
1 25272U 98019A   16237.46329715 -.00000029  00000-0 -17502-4 0  9993
2 25272  86.3928  51.0627 0001980  85.6822 274.4600 14.34214970963530
IRIDIUM 57 [-]          
1 25273U 98019B   16237.43741879  .00000078  00000-0  20901-4 0  9999
2 25273  86.3936  51.3678 0002207  87.1406 273.0042 14.34231187963531
IRIDIUM 58 [+]          
1 25274U 98019C   16237.44427007 -.00000044  00000-0 -22918-4 0  9990
2 25274  86.3934  51.5543 0001902  85.2186 274.9227 14.34214663963533
IRIDIUM 59 [+]          
1 25275U 98019D   16237.45061840 -.00000051  00000-0 -25162-4 0  9993
2 25275  86.3929  51.4207 0001999  82.1400 278.0022 14.34214304963535
IRIDIUM 60 [+]          
1 25276U 98019E   16237.45695694 -.00000045  00000-0 -23064-4 0  9996
2 25276  86.3926  51.0490 0001997  86.0688 274.0736 14.34214574963539
IRIDIUM 62 [+]          
1 25285U 98021A   16237.48836078  .00000027  00000-0  27550-5 0  9998
2 25285  86.4000 347.9453 0002065  96.4715 263.6716 14.34216149962498
IRIDIUM 63 [-]          
1 25286U 98021B   16237.37938352  .00000105  00000-0  30219-4 0  9997
2 25286  86.4031 348.3803 0002164  86.4319 334.0375 14.34607382962493
